O/OREOS (USA 219)       
1 37224U 10062C   26087.89034382  .00003296  00000+0  31897-3 0  9997
2 37224  71.9691 262.1742 0016156 224.2005 135.7876 14.93381659104653
