{
  "norad_id": 37224,
  "name": "O/OREOS (USA 219)",
  "history": [
    {
      "epoch": "2026-03-28T21:22:05.706048Z",
      "apogee_km": 598.653987841175,
      "perigee_km": 576.1469431826117,
      "latitude_deg": 3.3596293448262585e-05,
      "longitude_deg": 115.34613684049282,
      "height_km": 598.0291925233042,
      "semi_major_axis_km": 6965.537465511893,
      "eccentricity": 0.0016156,
      "inclination_deg": 71.9691,
      "raan_deg": 262.1742,
      "arg_perigee_deg": 224.2005,
      "mean_anomaly_deg": 135.7876,
      "mean_motion_rev_day": 14.93381659
    }
  ]
}